{
    "links": {
        "self": "http://www.neowsapp.com/rest/v1/neo/3655872?api_key=iIulBulltgU6a56xZRHN4H3l9WmuAYTsLGpBGhQ2"
    },
    "id": "3655872",
    "neo_reference_id": "3655872",
    "name": "(2014 AZ32)",
    "designation": "2014 AZ32",
    "nasa_jpl_url": "http://ssd.jpl.nasa.gov/sbdb.cgi?sstr=3655872",
    "absolute_magnitude_h": 26.0,
    "estimated_diameter": {
        "kilometers": {
            "estimated_diameter_min": 0.0167708462,
            "estimated_diameter_max": 0.0375007522
        },
        "meters": {
            "estimated_diameter_min": 16.7708462163,
            "estimated_diameter_max": 37.5007521798
        },
        "miles": {
            "estimated_diameter_min": 0.0104209175,
            "estimated_diameter_max": 0.0233018799
        },
        "feet": {
            "estimated_diameter_min": 55.0224631002,
            "estimated_diameter_max": 123.0339677816
        }
    },
    "is_potentially_hazardous_asteroid": false,
    "close_approach_data": [
        {
            "close_approach_date": "1955-12-05",
            "close_approach_date_full": "1955-Dec-05 14:41",
            "epoch_date_close_approach": -444129540000,
            "relative_velocity": {
                "kilometers_per_second": "18.3622137255",
                "kilometers_per_hour": "66103.9694119001",
                "miles_per_hour": "41074.4358826331"
            },
            "miss_distance": {
                "astronomical": "0.3648049854",
                "lunar": "141.9091393206",
                "kilometers": "54574048.781221098",
                "miles": "33910741.4506752324"
            },
            "orbiting_body": "Earth"
        },
        {
            "close_approach_date": "2006-03-30",
            "close_approach_date_full": "2006-Mar-30 22:15",
            "epoch_date_close_approach": 1143756900000,
            "relative_velocity": {
                "kilometers_per_second": "19.3087459208",
                "kilometers_per_hour": "69511.4853148325",
                "miles_per_hour": "43191.733750208"
            },
            "miss_distance": {
                "astronomical": "0.4002012552",
                "lunar": "155.6782882728",
                "kilometers": "59869255.349246424",
                "miles": "37201030.2393276912"
            },
            "orbiting_body": "Earth"
        },
        {
            "close_approach_date": "2014-01-11",
            "close_approach_date_full": "2014-Jan-11 23:51",
            "epoch_date_close_approach": 1389484260000,
            "relative_velocity": {
                "kilometers_per_second": "7.1149867508",
                "kilometers_per_hour": "25613.9523030027",
                "miles_per_hour": "15915.5138629408"
            },
            "miss_distance": {
                "astronomical": "0.0159785403",
                "lunar": "6.2156521767",
                "kilometers": "2390355.594589161",
                "miles": "1485298.0922899818"
            },
            "orbiting_body": "Earth"
        }
    ],
    "orbital_data": {
        "orbit_id": "9",
        "orbit_determination_date": "2017-04-06 08:42:56",
        "first_observation_date": "2014-01-09",
        "last_observation_date": "2014-01-14",
        "data_arc_in_days": 5,
        "observations_used": 80,
        "orbit_uncertainty": "7",
        "minimum_orbit_intersection": ".00457157",
        "jupiter_tisserand_invariant": "3.793",
        "epoch_osculation": "2459000.5",
        "eccentricity": ".4839157542471662",
        "semi_major_axis": "1.902129566135926",
        "inclination": "1.586198713705733",
        "ascending_node_longitude": "291.6699483915869",
        "orbital_period": "958.2053053682246",
        "perihelion_distance": ".9816591024634246",
        "perihelion_argument": "198.1587641931503",
        "aphelion_distance": "2.822600029808428",
        "perihelion_time": "2458599.424697926554",
        "mean_anomaly": "150.6849397905958",
        "mean_motion": ".3757023656445496",
        "equinox": "J2000",
        "orbit_class": {
            "orbit_class_type": "APO",
            "orbit_class_description": "Near-Earth asteroid orbits which cross the Earth’s orbit similar to that of 1862 Apollo",
            "orbit_class_range": "a (semi-major axis) > 1.0 AU; q (perihelion) < 1.017 AU"
        }
    },
    "is_sentry_object": false
}